QIANFAN-1               
1 60379U 24140A   25359.87612354  .00000125  00000+0  17503-3 0  9992
2 60379  88.9772 297.9213 0017170 170.8487 189.2980 13.50980398 69123
QIANFAN-2               
1 60380U 24140B   25359.90507650  .00000129  00000+0  18109-3 0  9997
2 60380  88.9758 297.7559 0013392 141.3159 218.8954 13.50984124 69188
QIANFAN-3               
1 60381U 24140C   25359.91323744  .00000112  00000+0  15491-3 0  9992
2 60381  88.9751 297.8866 0014096 154.0301 206.1560 13.50984625 69095
QIANFAN-4               
1 60382U 24140D   25359.88845591  .00000122  00000+0  17017-3 0  9995
2 60382  88.9777 297.7902 0013535 143.9878 216.2188 13.50980319 69215
QIANFAN-5               
1 60383U 24140E   25359.93794887  .00000137  00000+0  19289-3 0  9992
2 60383  88.9751 297.9095 0014994 165.7936 194.3640 13.50982393 69088
QIANFAN-6               
1 60384U 24140F   25359.88447187  .00000118  00000+0  16327-3 0  9994
2 60384  88.9778 297.6648 0013468 149.7433 210.4498 13.50982656 69272
QIANFAN-7               
1 60385U 24140G   25359.92150879  .00000752  00000+0  29910-3 0  9995
2 60385  88.9792 292.1739 0015671   5.9449 354.1928 14.27667786 72275
QIANFAN-8               
1 60386U 24140H   25359.89275729  .00000126  00000+0  17670-3 0  9999
2 60386  88.9779 297.9016 0016832 153.5732 206.6282 13.50980537 69128
